0 COSMOS 2004
1 19826U 89017A   13282.50749934  .00000105  00000-0  98836-4 0  1084
2 19826 082.9493 095.5692 0030960 158.1263 254.8158 13.72114347233186
0 COSMOS 2004
1 19826U 89017A   13283.82267486  .00000107  00000-0  10099-3 0  1094
2 19826 082.9493 094.6006 0031031 154.5714 271.1757 13.72114629233366
0 COSMOS 2004
1 19826U 89017A   13286.09794803  .00000057  00000-0  45417-4 0  1114
2 19826 082.9495 092.9249 0031120 148.4834 349.9120 13.72115023233673
0 COSMOS 2004
1 19826U 89017A   13287.54066647  .00000045  00000-0  31983-4 0  1124
2 19826 082.9497 091.8623 0031163 144.6658 276.1952 13.72115276233874
0 COSMOS 2004
1 19826U 89017A   13288.87040228  .00000057  00000-0  45853-4 0  1133
2 19826 082.9500 090.8830 0031239 141.0500 004.5020 13.72115434234055
0 COSMOS 2004
1 19826U 89017A   13290.03593678  .00000053  00000-0  41594-4 0  1141
2 19826 082.9503 090.0247 0031285 137.9275 001.6802 13.72115500234214
0 COSMOS 2004
1 19826U 89017A   13291.05495918  .00000061  00000-0  49858-4 0  1153
2 19826 082.9505 089.2744 0031329 135.2044 355.1533 13.72115483234355
0 COSMOS 2004
1 19826U 89017A   13292.07727303  .00000076  00000-0  66648-4 0  1165
2 19826 082.9507 088.5216 0031364 132.4742 004.8832 13.72115507234498
0 COSMOS 2004
1 19826U 89017A   13293.52039326  .00000088  00000-0  79236-4 0  1178
2 19826 082.9508 087.4591 0031369 128.6796 293.1308 13.72115642234697
0 COSMOS 2004
1 19826U 89017A   13294.54228117  .00000096  00000-0  88503-4 0  1186
2 19826 082.9509 086.7068 0031406 125.9396 300.7679 13.72115773234834
0 COSMOS 2004
1 19826U 89017A   13296.01551086  .00000095  00000-0  86759-4 0  1195
2 19826 082.9510 085.6220 0031429 122.0291 017.7775 13.72115942235034
